[{"OBJECT_NAME":"STARLINK-30500","OBJECT_ID":"2023-160B","EPOCH":"2026-03-09T01:54:49.318272","MEAN_MOTION":15.26745168,"ECCENTRICITY":9.546e-5,"INCLINATION":42.9967,"RA_OF_ASC_NODE":81.2229,"ARG_OF_PERICENTER":267.733,"MEAN_ANOMALY":92.3412,"EPHEMERIS_TYPE":0,"CLASSIFICATION_TYPE":"U","NORAD_CAT_ID":58076,"ELEMENT_SET_NO":999,"REV_AT_EPOCH":13285,"BSTAR":-5.1834422e-5,"MEAN_MOTION_DOT":-1.65e-5,"MEAN_MOTION_DDOT":0},{"OBJECT_NAME":"OBJECT M","OBJECT_ID":"2024-205M","EPOCH":"2026-03-09T22:23:47.520096","MEAN_MOTION":15.27663844,"ECCENTRICITY":0.00036602,"INCLINATION":97.3915,"RA_OF_ASC_NODE":144.193,"ARG_OF_PERICENTER":310.2554,"MEAN_ANOMALY":49.8364,"EPHEMERIS_TYPE":0,"CLASSIFICATION_TYPE":"U","NORAD_CAT_ID":61905,"ELEMENT_SET_NO":999,"REV_AT_EPOCH":7334,"BSTAR":0.00036391974,"MEAN_MOTION_DOT":9.771e-5,"MEAN_MOTION_DDOT":0}]
